start=new Date('2021-12-19T00:00:00.000Z').valueOf();
sats=[{"REV_AT_EPOCH":"10270","REF_FRAME":"TEME","EPOCH":"2021-12-18T13:09:49.693248","MEAN_MOTION":"15.06408836","CENTER_NAME":"EARTH","SITE":"AFETR","LAUNCH_DATE":"2020-02-17","RCS_SIZE":"LARGE","ELEMENT_SET_NO":"999","GP_ID":"191940621","FILE":"3243681","BSTAR":"-0.00002840500000","OBJECT_ID":"2020-012AD","RA_OF_ASC_NODE":"109.5515","NORAD_CAT_ID":"45205","MEAN_ANOMALY":"268.1099","OBJECT_NAME":"STARLINK-1208","TLE_LINE1":"1 45205U 20012AD  21352.54849182 -.00000705  00000-0 -28405-4 0  9992","OBJECT_TYPE":"PAYLOAD","SEMIMAJOR_AXIS":"6925.321","CLASSIFICATION_TYPE":"U","TIME_SYSTEM":"UTC","TLE_LINE2":"2 45205  53.0542 109.5515 0001140  92.0021 268.1099 15.06408836102709","PERIAPSIS":"546.397","INCLINATION":"53.0542","DECAY_DATE":null,"COUNTRY_CODE":"US","MEAN_MOTION_DDOT":"0.0000000000000","ARG_OF_PERICENTER":"92.0021","PERIOD":"95.592","MEAN_ELEMENT_THEORY":"SGP4","ECCENTRICITY":"0.00011400","APOAPSIS":"547.976","EPHEMERIS_TYPE":"0","MEAN_MOTION_DOT":"-0.00000705"},{"INCLINATION":"53.0558","DECAY_DATE":null,"COUNTRY_CODE":"US","MEAN_MOTION_DDOT":"0.0000000000000","ARG_OF_PERICENTER":"97.0600","PERIOD":"95.592","MEAN_ELEMENT_THEORY":"SGP4","ECCENTRICITY":"0.00011800","APOAPSIS":"548.036","EPHEMERIS_TYPE":"0","MEAN_MOTION_DOT":"0.00000508","REF_FRAME":"TEME","EPOCH":"2021-12-18T13:49:37.677792","REV_AT_EPOCH":"10201","MEAN_MOTION":"15.06398204","CENTER_NAME":"EARTH","SITE":"AFETR","LAUNCH_DATE":"2020-02-17","RCS_SIZE":"LARGE","ELEMENT_SET_NO":"999","GP_ID":"191939369","FILE":"3243681","BSTAR":"0.00005299200000","OBJECT_ID":"2020-012AE","RA_OF_ASC_NODE":"89.4464","NORAD_CAT_ID":"45206","MEAN_ANOMALY":"263.0523","OBJECT_NAME":"STARLINK-1209","TLE_LINE1":"1 45206U 20012AE  21352.57613053  .00000508  00000-0  52992-4 0  9999","CLASSIFICATION_TYPE":"U","OBJECT_TYPE":"PAYLOAD","SEMIMAJOR_AXIS":"6925.354","TIME_SYSTEM":"UTC","PERIAPSIS":"546.402","TLE_LINE2":"2 45206  53.0558  89.4464 0001180  97.0600 263.0523 15.06398204102015"},{"NORAD_CAT_ID":"45207","RA_OF_ASC_NODE":"108.5600","MEAN_ANOMALY":"261.3224","FILE":"3243799","BSTAR":"0.00007435700000","OBJECT_ID":"2020-012AF","CLASSIFICATION_TYPE":"U","OBJECT_TYPE":"PAYLOAD","SEMIMAJOR_AXIS":"6925.317","TLE_LINE2":"2 45207  53.0543 108.5600 0001442  98.7929 261.3224 15.06410435101770","PERIAPSIS":"546.183","TIME_SYSTEM":"UTC","TLE_LINE1":"1 45207U 20012AF  21352.76965104  .00000827  00000-0  74357-4 0  9991","OBJECT_NAME":"STARLINK-1210","SITE":"AFETR","MEAN_MOTION":"15.06410435","REF_FRAME":"TEME","EPOCH":"2021-12-18T18:28:17.849856","REV_AT_EPOCH":"10177","CENTER_NAME":"EARTH","GP_ID":"191947029","ELEMENT_SET_NO":"999","RCS_SIZE":"LARGE","LAUNCH_DATE":"2020-02-17","ECCENTRICITY":"0.00014420","ARG_OF_PERICENTER":"98.7929","MEAN_ELEMENT_THEORY":"SGP4","PERIOD":"95.591","APOAPSIS":"548.180","MEAN_MOTION_DOT":"0.00000827","EPHEMERIS_TYPE":"0","DECAY_DATE":null,"INCLINATION":"53.0543","COUNTRY_CODE":"US","MEAN_MOTION_DDOT":"0.0000000000000"},{"LAUNCH_DATE":"2020-02-17","RCS_SIZE":"LARGE","ELEMENT_SET_NO":"999","GP_ID":"191940371","CENTER_NAME":"EARTH","REF_FRAME":"TEME","EPOCH":"2021-12-18T13:34:02.800416","REV_AT_EPOCH":"10259","MEAN_MOTION":"15.05582121","SITE":"AFETR","OBJECT_NAME":"STARLINK-1211","TLE_LINE1":"1 45208U 20012AG  21352.56531019 -.00000120  00000-0  10932-4 0  9990","TIME_SYSTEM":"UTC","PERIAPSIS":"548.670","TLE_LINE2":"2 45208  52.9995 109.4761 0001518 100.7974 259.3184 15.05582121102590","CLASSIFICATION_TYPE":"U","OBJECT_TYPE":"PAYLOAD","SEMIMAJOR_AXIS":"6927.856","BSTAR":"0.00001093200000","FILE":"3243681","OBJECT_ID":"2020-012AG","MEAN_ANOMALY":"259.3184","RA_OF_ASC_NODE":"109.4761","NORAD_CAT_ID":"45208","MEAN_MOTION_DDOT":"0.0000000000000","COUNTRY_CODE":"US","INCLINATION":"52.9995","DECAY_DATE":null,"EPHEMERIS_TYPE":"0","MEAN_MOTION_DOT":"-0.00000120","APOAPSIS":"550.773","PERIOD":"95.644","MEAN_ELEMENT_THEORY":"SGP4","ARG_OF_PERICENTER":"100.7974","ECCENTRICITY":"0.00015180"},{"INCLINATION":"53.0538","DECAY_DATE":null,"COUNTRY_CODE":"US","MEAN_MOTION_DDOT":"0.0000000000000","ARG_OF_PERICENTER":"14.7856","PERIOD":"91.329","MEAN_ELEMENT_THEORY":"SGP4","ECCENTRICITY":"0.00031580","APOAPSIS":"341.859","EPHEMERIS_TYPE":"0","MEAN_MOTION_DOT":"-0.00001106","REV_AT_EPOCH":"10374","REF_FRAME":"TEME","EPOCH":"2021-12-18T08:37:06.468096","MEAN_MOTION":"15.76721941","CENTER_NAME":"EARTH","SITE":"AFETR","LAUNCH_DATE":"2020-02-17","RCS_SIZE":"LARGE","ELEMENT_SET_NO":"999","GP_ID":"191941121","FILE":"3243681","BSTAR":"-0.00000273470000","OBJECT_ID":"2020-012AH","RA_OF_ASC_NODE":"28.6349","NORAD_CAT_ID":"45209","MEAN_ANOMALY":"345.3255","TLE_LINE1":"1 45209U 20012AH  21352.35910264 -.00001106  00000-0 -27347-5 0  9996","OBJECT_NAME":"STARLINK-1218","CLASSIFICATION_TYPE":"U","OBJECT_TYPE":"PAYLOAD","SEMIMAJOR_AXIS":"6717.873","TIME_SYSTEM":"UTC","PERIAPSIS":"337.616","TLE_LINE2":"2 45209  53.0538  28.6349 0003158  14.7856 345.3255 15.76721941103741"},{"DECAY_DATE":null,"INCLINATION":"53.0549","COUNTRY_CODE":"US","MEAN_MOTION_DDOT":"0.0000000000000","ECCENTRICITY":"0.00015380","ARG_OF_PERICENTER":"99.2372","MEAN_ELEMENT_THEORY":"SGP4","PERIOD":"95.592","APOAPSIS":"548.278","MEAN_MOTION_DOT":"-0.00000095","EPHEMERIS_TYPE":"0","SITE":"AFETR","MEAN_MOTION":"15.06400267","REF_FRAME":"TEME","EPOCH":"2021-12-18T13:46:58.283616","REV_AT_EPOCH":"10257","CENTER_NAME":"EARTH","GP_ID":"191939869","ELEMENT_SET_NO":"999","RCS_SIZE":"LARGE","LAUNCH_DATE":"2020-02-17","NORAD_CAT_ID":"45210","RA_OF_ASC_NODE":"109.4531","MEAN_ANOMALY":"260.8791","FILE":"3243681","OBJECT_ID":"2020-012AJ","BSTAR":"0.00001249200000","CLASSIFICATION_TYPE":"U","OBJECT_TYPE":"PAYLOAD","SEMIMAJOR_AXIS":"6925.348","TLE_LINE2":"2 45210  53.0549 109.4531 0001538  99.2372 260.8791 15.06400267102571","PERIAPSIS":"546.148","TIME_SYSTEM":"UTC","OBJECT_NAME":"STARLINK-1219","TLE_LINE1":"1 45210U 20012AJ  21352.57428569 -.00000095  00000-0  12492-4 0  9993"},{"ARG_OF_PERICENTER":"96.6463","PERIOD":"95.591","MEAN_ELEMENT_THEORY":"SGP4","ECCENTRICITY":"0.00016790","APOAPSIS":"548.329","EPHEMERIS_TYPE":"0","MEAN_MOTION_DOT":"-0.00000201","INCLINATION":"53.0532","DECAY_DATE":null,"COUNTRY_CODE":"US","MEAN_MOTION_DDOT":"0.0000000000000","OBJECT_ID":"2020-012AL","FILE":"3243681","BSTAR":"0.00000541560000","NORAD_CAT_ID":"45212","RA_OF_ASC_NODE":"109.5931","MEAN_ANOMALY":"263.4717","OBJECT_NAME":"STARLINK-1231","TLE_LINE1":"1 45212U 20012AL  21352.54111349 -.00000201  00000-0  54156-5 0  9990","OBJECT_TYPE":"PAYLOAD","SEMIMAJOR_AXIS":"6925.301","CLASSIFICATION_TYPE":"U","TIME_SYSTEM":"UTC","TLE_LINE2":"2 45212  53.0532 109.5931 0001679  96.6463 263.4717 15.06415362102634","PERIAPSIS":"546.004","REF_FRAME":"TEME","EPOCH":"2021-12-18T12:59:12.205536","REV_AT_EPOCH":"10263","MEAN_MOTION":"15.06415362","CENTER_NAME":"EARTH","SITE":"AFETR","LAUNCH_DATE":"2020-02-17","ELEMENT_SET_NO":"999","RCS_SIZE":"LARGE","GP_ID":"191940119"},{"MEAN_ANOMALY":"292.3047","RA_OF_ASC_NODE":"109.5912","NORAD_CAT_ID":"45213","FILE":"3243681","BSTAR":"0.00040270000000","OBJECT_ID":"2020-012AM","TIME_SYSTEM":"UTC","PERIAPSIS":"545.888","TLE_LINE2":"2 45213  53.0546 109.5912 0001778  67.8131 292.3047 15.06430628102685","OBJECT_TYPE":"PAYLOAD","SEMIMAJOR_AXIS":"6925.255","CLASSIFICATION_TYPE":"U","OBJECT_NAME":"STARLINK-1232","TLE_LINE1":"1 45213U 20012AM  21352.54481719  .00005727  00000-0  40270-3 0  9999","SITE":"AFETR","CENTER_NAME":"EARTH","REF_FRAME":"TEME","EPOCH":"2021-12-18T13:04:32.205216","REV_AT_EPOCH":"10268","MEAN_MOTION":"15.06430628","GP_ID":"191940871","LAUNCH_DATE":"2020-02-17","RCS_SIZE":"LARGE","ELEMENT_SET_NO":"999","ECCENTRICITY":"0.00017780","PERIOD":"95.590","MEAN_ELEMENT_THEORY":"SGP4","ARG_OF_PERICENTER":"67.8131","EPHEMERIS_TYPE":"0","MEAN_MOTION_DOT":"0.00005727","APOAPSIS":"548.351","DECAY_DATE":null,"INCLINATION":"53.0546","MEAN_MOTION_DDOT":"0.0000000000000","COUNTRY_CODE":"US"},{"COUNTRY_CODE":"US","MEAN_MOTION_DDOT":"0.0000000000000","INCLINATION":"53.0557","DECAY_DATE":null,"APOAPSIS":"548.204","EPHEMERIS_TYPE":"0","MEAN_MOTION_DOT":"0.00000419","ARG_OF_PERICENTER":"85.7881","PERIOD":"95.592","MEAN_ELEMENT_THEORY":"SGP4","ECCENTRICITY":"0.00014320","LAUNCH_DATE":"2020-02-17","RCS_SIZE":"LARGE","ELEMENT_SET_NO":"999","GP_ID":"191947564","REF_FRAME":"TEME","EPOCH":"2021-12-18T17:08:40.512192","REV_AT_EPOCH":"10176","MEAN_MOTION":"15.06400266","CENTER_NAME":"EARTH","SITE":"AFETR","OBJECT_NAME":"STARLINK-1233","TLE_LINE1":"1 45214U 20012AN  21352.71435778  .00000419  00000-0  46999-4 0  9991","OBJECT_TYPE":"PAYLOAD","CLASSIFICATION_TYPE":"U","SEMIMAJOR_AXIS":"6925.348","TIME_SYSTEM":"UTC","TLE_LINE2":"2 45214  53.0557 108.8093 0001432  85.7881 274.3271 15.06400266101760","PERIAPSIS":"546.221","BSTAR":"0.00004699900000","FILE":"3243821","OBJECT_ID":"2020-012AN","NORAD_CAT_ID":"45214","RA_OF_ASC_NODE":"108.8093","MEAN_ANOMALY":"274.3271"},{"ELEMENT_SET_NO":"999","RCS_SIZE":"LARGE","LAUNCH_DATE":"2020-02-17","GP_ID":"191947576","MEAN_MOTION":"15.06393571","EPOCH":"2021-12-18T17:03:22.300992","REF_FRAME":"TEME","REV_AT_EPOCH":"10176","CENTER_NAME":"EARTH","SITE":"AFETR","TLE_LINE1":"1 45215U 20012AP  21352.71067478  .00000192  00000-0  31765-4 0  9993","OBJECT_NAME":"STARLINK-1245","OBJECT_TYPE":"PAYLOAD","CLASSIFICATION_TYPE":"U","SEMIMAJOR_AXIS":"6925.368","TLE_LINE2":"2 45215  53.0546 108.8276 0001564 103.9402 256.1761 15.06393571101762","PERIAPSIS":"546.150","TIME_SYSTEM":"UTC","FILE":"3243802","BSTAR":"0.00003176500000","OBJECT_ID":"2020-012AP","NORAD_CAT_ID":"45215","RA_OF_ASC_NODE":"108.8276","MEAN_ANOMALY":"256.1761","COUNTRY_CODE":"US","MEAN_MOTION_DDOT":"0.0000000000000","INCLINATION":"53.0546","DECAY_DATE":null,"APOAPSIS":"548.316","MEAN_MOTION_DOT":"0.00000192","EPHEMERIS_TYPE":"0","ARG_OF_PERICENTER":"103.9402","MEAN_ELEMENT_THEORY":"SGP4","PERIOD":"95.593","ECCENTRICITY":"0.00015640"}];
